QZS-1R                  
1 49336U 21096A   23285.80396868 -.00000194  00000+0  00000+0 0  9994
2 49336  35.4326  94.3246 0746163 269.9871  81.2676  1.00280164  7196
